{
  "type": "FeatureCollection",
  "features": [
    {
      "type": "Feature",
      "properties": { "name": "Sahel", "capital": "Dori", "code": "SAH" },
      "geometry": {
        "type": "Polygon",
        "coordinates": [[
          [-0.50, 14.00], [ 0.50, 14.10], [ 1.20, 14.50], [ 2.00, 14.90],
          [ 2.40, 15.10], [ 2.40, 14.00], [ 1.80, 13.20], [ 0.80, 13.00],
          [-0.10, 12.85], [-0.50, 13.20], [-0.50, 14.00]
        ]]
      }
    },
    {
      "type": "Feature",
      "properties": { "name": "Est", "capital": "Fada N'Gourma", "code": "EST" },
      "geometry": {
        "type": "Polygon",
        "coordinates": [[
          [ 0.80, 13.00], [ 1.80, 13.20], [ 2.40, 14.00], [ 2.40, 11.00],
          [ 2.00, 10.50], [ 1.20, 10.20], [ 0.50, 10.50], [ 0.30, 11.20],
          [ 0.50, 12.00], [ 0.80, 13.00]
        ]]
      }
    },
    {
      "type": "Feature",
      "properties": { "name": "Nord", "capital": "Ouahigouya", "code": "NOR" },
      "geometry": {
        "type": "Polygon",
        "coordinates": [[
          [-3.00, 13.00], [-2.00, 13.50], [-1.00, 14.00], [-0.50, 14.00],
          [-0.50, 13.20], [-1.00, 12.80], [-1.80, 12.50], [-2.50, 12.50],
          [-3.00, 12.80], [-3.00, 13.00]
        ]]
      }
    },
    {
      "type": "Feature",
      "properties": { "name": "Centre-Nord", "capital": "Kaya", "code": "CNO" },
      "geometry": {
        "type": "Polygon",
        "coordinates": [[
          [-1.00, 12.80], [-0.50, 13.20], [-0.10, 12.85], [ 0.80, 13.00],
          [ 0.50, 12.00], [ 0.20, 11.50], [-0.30, 11.30], [-0.80, 11.60],
          [-1.20, 12.00], [-1.00, 12.80]
        ]]
      }
    },
    {
      "type": "Feature",
      "properties": { "name": "Boucle du Mouhoun", "capital": "Dédougou", "code": "BOM" },
      "geometry": {
        "type": "Polygon",
        "coordinates": [[
          [-5.30, 13.50], [-4.50, 13.80], [-3.50, 14.00], [-3.00, 14.00],
          [-2.00, 13.50], [-3.00, 13.00], [-3.00, 12.80], [-3.50, 12.50],
          [-4.00, 12.20], [-4.50, 12.00], [-5.00, 12.20], [-5.30, 12.60],
          [-5.30, 13.50]
        ]]
      }
    },
    {
      "type": "Feature",
      "properties": { "name": "Centre", "capital": "Ouagadougou", "code": "CEN" },
      "geometry": {
        "type": "Polygon",
        "coordinates": [[
          [-1.80, 12.50], [-1.20, 12.00], [-0.80, 11.60], [-0.30, 11.30],
          [-0.60, 11.00], [-1.10, 10.80], [-1.60, 11.00], [-2.00, 11.40],
          [-2.00, 11.90], [-1.80, 12.50]
        ]]
      }
    },
    {
      "type": "Feature",
      "properties": { "name": "Plateau Central", "capital": "Ziniaré", "code": "PCE" },
      "geometry": {
        "type": "Polygon",
        "coordinates": [[
          [-0.30, 11.30], [ 0.20, 11.50], [ 0.50, 12.00], [ 0.30, 11.20],
          [ 0.00, 10.80], [-0.30, 10.60], [-0.60, 10.80], [-0.60, 11.00],
          [-0.30, 11.30]
        ]]
      }
    },
    {
      "type": "Feature",
      "properties": { "name": "Centre-Est", "capital": "Tenkodogo", "code": "CES" },
      "geometry": {
        "type": "Polygon",
        "coordinates": [[
          [ 0.30, 11.20], [ 0.50, 12.00], [ 0.50, 10.50], [ 0.00, 10.20],
          [-0.30, 10.60], [ 0.00, 10.80], [ 0.30, 11.20]
        ]]
      }
    },
    {
      "type": "Feature",
      "properties": { "name": "Centre-Ouest", "capital": "Koudougou", "code": "COO" },
      "geometry": {
        "type": "Polygon",
        "coordinates": [[
          [-3.50, 12.50], [-3.00, 12.80], [-2.50, 12.50], [-2.00, 11.90],
          [-2.00, 11.40], [-2.50, 11.20], [-3.00, 11.50], [-3.50, 11.80],
          [-3.50, 12.50]
        ]]
      }
    },
    {
      "type": "Feature",
      "properties": { "name": "Centre-Sud", "capital": "Manga", "code": "CSU" },
      "geometry": {
        "type": "Polygon",
        "coordinates": [[
          [-1.60, 11.00], [-1.10, 10.80], [-0.60, 11.00], [-0.60, 10.80],
          [-0.30, 10.60], [-0.80, 10.00], [-1.20, 10.00], [-1.60, 10.30],
          [-2.00, 10.80], [-1.60, 11.00]
        ]]
      }
    },
    {
      "type": "Feature",
      "properties": { "name": "Hauts-Bassins", "capital": "Bobo-Dioulasso", "code": "HBA" },
      "geometry": {
        "type": "Polygon",
        "coordinates": [[
          [-5.30, 12.60], [-5.00, 12.20], [-4.50, 12.00], [-4.00, 12.20],
          [-3.50, 11.80], [-3.00, 11.50], [-2.50, 11.20], [-2.50, 10.50],
          [-3.00, 10.00], [-4.00, 10.00], [-4.80, 10.50], [-5.30, 11.00],
          [-5.50, 11.50], [-5.50, 12.20], [-5.30, 12.60]
        ]]
      }
    },
    {
      "type": "Feature",
      "properties": { "name": "Cascades", "capital": "Banfora", "code": "CAS" },
      "geometry": {
        "type": "Polygon",
        "coordinates": [[
          [-5.50, 11.50], [-5.30, 11.00], [-4.80, 10.50], [-4.00, 10.00],
          [-3.50, 10.00], [-3.80, 9.60], [-4.50, 9.40], [-5.20, 9.60],
          [-5.50, 10.20], [-5.50, 11.50]
        ]]
      }
    },
    {
      "type": "Feature",
      "properties": { "name": "Sud-Ouest", "capital": "Gaoua", "code": "SOO" },
      "geometry": {
        "type": "Polygon",
        "coordinates": [[
          [-3.00, 11.50], [-2.50, 11.20], [-2.50, 10.50], [-3.00, 10.00],
          [-3.50, 10.00], [-3.80, 9.60], [-3.00, 9.40], [-2.50, 9.80],
          [-2.00, 10.20], [-1.60, 10.30], [-1.20, 10.00], [-1.50, 9.60],
          [-2.50, 9.40], [-3.20, 9.50], [-4.00, 9.80], [-3.80, 10.50],
          [-3.50, 11.20], [-3.00, 11.50]
        ]]
      }
    }
  ]
}
